[{"weight":18893,"pallets":24,"zipcode":46168,"latitude":39.6893,"longitude":-86.3919,"cluster":5,"vehicle_id":78},{"weight":19599,"pallets":25,"zipcode":46168,"latitude":39.6893,"longitude":-86.3919,"cluster":5,"vehicle_id":84},{"weight":28230,"pallets":26,"zipcode":53085,"latitude":43.7266,"longitude":-87.8242,"cluster":1,"vehicle_id":83},{"weight":13322,"pallets":24,"zipcode":55379,"latitude":44.7793,"longitude":-93.5197,"cluster":5,"vehicle_id":63},{"weight":13312,"pallets":24,"zipcode":55379,"latitude":44.7793,"longitude":-93.5197,"cluster":1,"vehicle_id":98},{"weight":11713,"pallets":21,"zipcode":55379,"latitude":44.7793,"longitude":-93.5197,"cluster":0,"vehicle_id":2},{"weight":4409,"pallets":24,"zipcode":60087,"latitude":42.3989,"longitude":-87.8554,"cluster":2,"vehicle_id":6},{"weight":6355,"pallets":26,"zipcode":61866,"latitude":40.3107,"longitude":-88.1462,"cluster":2,"vehicle_id":20},{"weight":2407,"pallets":11,"zipcode":61866,"latitude":40.3107,"longitude":-88.1462,"cluster":0,"vehicle_id":10},{"weight":34497,"pallets":25,"zipcode":60018,"latitude":41.9501,"longitude":-87.695866,"cluster":2,"vehicle_id":23},{"weight":40417,"pallets":25,"zipcode":60018,"latitude":41.9501,"longitude":-87.695866,"cluster":4,"vehicle_id":35},{"weight":17588,"pallets":26,"zipcode":46168,"latitude":39.6893,"longitude":-86.3919,"cluster":1,"vehicle_id":87},{"weight":10524,"pallets":26,"zipcode":60164,"latitude":41.9214,"longitude":-87.8924,"cluster":3,"vehicle_id":94},{"weight":7755,"pallets":25,"zipcode":60652,"latitude":41.7454,"longitude":-87.7135,"cluster":5,"vehicle_id":19},{"weight":8805,"pallets":22,"zipcode":60652,"latitude":41.7454,"longitude":-87.7135,"cluster":2,"vehicle_id":95},{"weight":10889,"pallets":24,"zipcode":60652,"latitude":41.7454,"longitude":-87.7135,"cluster":5,"vehicle_id":5},{"weight":8244,"pallets":21,"zipcode":60652,"latitude":41.7454,"longitude":-87.7135,"cluster":3,"vehicle_id":35},{"weight":9925,"pallets":23,"zipcode":60652,"latitude":41.7454,"longitude":-87.7135,"cluster":3,"vehicle_id":66},{"weight":8721,"pallets":26,"zipcode":60652,"latitude":41.7454,"longitude":-87.7135,"cluster":5,"vehicle_id":26},{"weight":11362,"pallets":25,"zipcode":60652,"latitude":41.7454,"longitude":-87.7135,"cluster":0,"vehicle_id":22},{"weight":4068,"pallets":11,"zipcode":60652,"latitude":41.7454,"longitude":-87.7135,"cluster":2,"vehicle_id":54},{"weight":3390,"pallets":9,"zipcode":60652,"latitude":41.7454,"longitude":-87.7135,"cluster":3,"vehicle_id":69},{"weight":27143,"pallets":25,"zipcode":60490,"latitude":41.679,"longitude":-88.1403,"cluster":3,"vehicle_id":23},{"weight":1267,"pallets":2,"zipcode":46809,"latitude":41.052695,"longitude":-85.161001,"cluster":1,"vehicle_id":7},{"weight":4880,"pallets":8,"zipcode":48847,"latitude":43.2828,"longitude":-84.6088,"cluster":2,"vehicle_id":51},{"weight":360,"pallets":0,"zipcode":55987,"latitude":44.03,"longitude":-91.7009,"cluster":4,"vehicle_id":60},{"weight":7426,"pallets":24,"zipcode":46001,"latitude":40.2561,"longitude":-85.6681,"cluster":1,"vehicle_id":20},{"weight":1020,"pallets":2,"zipcode":46072,"latitude":40.2817,"longitude":-86.0433,"cluster":4,"vehicle_id":69},{"weight":28276,"pallets":25,"zipcode":46123,"latitude":39.7629,"longitude":-86.3996,"cluster":4,"vehicle_id":67},{"weight":17060,"pallets":26,"zipcode":41048,"latitude":39.064925,"longitude":-84.631225,"cluster":4,"vehicle_id":101},{"weight":17251,"pallets":15,"zipcode":50010,"latitude":42.0379,"longitude":-93.6003,"cluster":1,"vehicle_id":55},{"weight":16957,"pallets":19,"zipcode":60087,"latitude":42.3989,"longitude":-87.8554,"cluster":1,"vehicle_id":53},{"weight":19893,"pallets":21,"zipcode":43123,"latitude":39.8814,"longitude":-83.0839,"cluster":4,"vehicle_id":46},{"weight":18415,"pallets":23,"zipcode":40165,"latitude":38.0045,"longitude":-85.6888,"cluster":2,"vehicle_id":23},{"weight":20710,"pallets":25,"zipcode":40165,"latitude":38.0045,"longitude":-85.6888,"cluster":2,"vehicle_id":75},{"weight":20039,"pallets":23,"zipcode":42276,"latitude":36.8453,"longitude":-86.8823,"cluster":0,"vehicle_id":77},{"weight":223,"pallets":1,"zipcode":46580,"latitude":41.2438,"longitude":-85.8508,"cluster":4,"vehicle_id":96},{"weight":8104,"pallets":16,"zipcode":54971,"latitude":43.8454,"longitude":-88.8424,"cluster":1,"vehicle_id":45},{"weight":9070,"pallets":26,"zipcode":52404,"latitude":41.9521,"longitude":-91.6853,"cluster":0,"vehicle_id":57},{"weight":17856,"pallets":26,"zipcode":45204,"latitude":39.0963,"longitude":-84.5719,"cluster":3,"vehicle_id":79},{"weight":14377,"pallets":26,"zipcode":45204,"latitude":39.0963,"longitude":-84.5719,"cluster":3,"vehicle_id":104},{"weight":12232,"pallets":25,"zipcode":45204,"latitude":39.0963,"longitude":-84.5719,"cluster":5,"vehicle_id":72},{"weight":15264,"pallets":26,"zipcode":45204,"latitude":39.0963,"longitude":-84.5719,"cluster":2,"vehicle_id":39},{"weight":10010,"pallets":25,"zipcode":44146,"latitude":41.3921,"longitude":-81.5232,"cluster":1,"vehicle_id":66},{"weight":9688,"pallets":23,"zipcode":43015,"latitude":40.2932,"longitude":-83.0723,"cluster":3,"vehicle_id":88},{"weight":10424,"pallets":24,"zipcode":43015,"latitude":40.2932,"longitude":-83.0723,"cluster":4,"vehicle_id":60},{"weight":11191,"pallets":26,"zipcode":43015,"latitude":40.2932,"longitude":-83.0723,"cluster":0,"vehicle_id":100},{"weight":5798,"pallets":20,"zipcode":53105,"latitude":42.666,"longitude":-88.2749,"cluster":3,"vehicle_id":59},{"weight":31572,"pallets":24,"zipcode":45241,"latitude":39.1594,"longitude":-84.35655,"cluster":4,"vehicle_id":33},{"weight":32626,"pallets":25,"zipcode":45241,"latitude":39.1594,"longitude":-84.35655,"cluster":0,"vehicle_id":23},{"weight":17111,"pallets":25,"zipcode":45840,"latitude":41.0449,"longitude":-83.6457,"cluster":2,"vehicle_id":30},{"weight":17553,"pallets":26,"zipcode":45840,"latitude":41.0449,"longitude":-83.6457,"cluster":0,"vehicle_id":38},{"weight":9622,"pallets":14,"zipcode":45840,"latitude":41.0449,"longitude":-83.6457,"cluster":1,"vehicle_id":31},{"weight":816,"pallets":0,"zipcode":48390,"latitude":42.5582,"longitude":-83.4773,"cluster":0,"vehicle_id":74},{"weight":24366,"pallets":22,"zipcode":48393,"latitude":42.534,"longitude":-83.5285,"cluster":4,"vehicle_id":65},{"weight":26247,"pallets":25,"zipcode":48393,"latitude":42.534,"longitude":-83.5285,"cluster":4,"vehicle_id":6},{"weight":17248,"pallets":25,"zipcode":56308,"latitude":45.8817,"longitude":-95.382,"cluster":4,"vehicle_id":102},{"weight":22445,"pallets":19,"zipcode":46231,"latitude":39.7038,"longitude":-86.3029,"cluster":0,"vehicle_id":103},{"weight":26256,"pallets":23,"zipcode":43125,"latitude":39.8581,"longitude":-82.8872,"cluster":3,"vehicle_id":55},{"weight":6395,"pallets":24,"zipcode":40361,"latitude":38.2083,"longitude":-84.245,"cluster":4,"vehicle_id":6},{"weight":2254,"pallets":22,"zipcode":60446,"latitude":41.6404,"longitude":-88.0696,"cluster":1,"vehicle_id":86},{"weight":15074,"pallets":26,"zipcode":60446,"latitude":41.6404,"longitude":-88.0696,"cluster":1,"vehicle_id":88},{"weight":14730,"pallets":25,"zipcode":60446,"latitude":41.6404,"longitude":-88.0696,"cluster":5,"vehicle_id":79},{"weight":13473,"pallets":23,"zipcode":60446,"latitude":41.6404,"longitude":-88.0696,"cluster":3,"vehicle_id":70},{"weight":15540,"pallets":26,"zipcode":60446,"latitude":41.6404,"longitude":-88.0696,"cluster":4,"vehicle_id":93},{"weight":12644,"pallets":19,"zipcode":60436,"latitude":41.4884,"longitude":-88.1572,"cluster":2,"vehicle_id":51},{"weight":15772,"pallets":25,"zipcode":60436,"latitude":41.4884,"longitude":-88.1572,"cluster":4,"vehicle_id":59},{"weight":5511,"pallets":8,"zipcode":60436,"latitude":41.4884,"longitude":-88.1572,"cluster":2,"vehicle_id":29},{"weight":13790,"pallets":23,"zipcode":60436,"latitude":41.4884,"longitude":-88.1572,"cluster":4,"vehicle_id":23},{"weight":27147,"pallets":20,"zipcode":49423,"latitude":42.7692,"longitude":-86.1164,"cluster":0,"vehicle_id":97},{"weight":2066,"pallets":24,"zipcode":65202,"latitude":38.995,"longitude":-92.3112,"cluster":1,"vehicle_id":78},{"weight":16024,"pallets":24,"zipcode":46231,"latitude":39.7038,"longitude":-86.3029,"cluster":4,"vehicle_id":99},{"weight":13871,"pallets":23,"zipcode":43125,"latitude":39.8581,"longitude":-82.8872,"cluster":2,"vehicle_id":70},{"weight":33797,"pallets":26,"zipcode":43130,"latitude":39.7187,"longitude":-82.6031,"cluster":2,"vehicle_id":47},{"weight":23913,"pallets":25,"zipcode":43130,"latitude":39.7187,"longitude":-82.6031,"cluster":3,"vehicle_id":62},{"weight":31479,"pallets":26,"zipcode":43130,"latitude":39.7187,"longitude":-82.6031,"cluster":3,"vehicle_id":30},{"weight":12642,"pallets":25,"zipcode":61910,"latitude":39.687,"longitude":-88.3037,"cluster":3,"vehicle_id":16},{"weight":11014,"pallets":21,"zipcode":61910,"latitude":39.687,"longitude":-88.3037,"cluster":0,"vehicle_id":67},{"weight":9667,"pallets":20,"zipcode":44646,"latitude":40.8116,"longitude":-81.4973,"cluster":2,"vehicle_id":79},{"weight":9900,"pallets":23,"zipcode":44646,"latitude":40.8116,"longitude":-81.4973,"cluster":5,"vehicle_id":65},{"weight":11090,"pallets":24,"zipcode":53511,"latitude":42.562,"longitude":-89.086,"cluster":1,"vehicle_id":33},{"weight":10823,"pallets":9,"zipcode":42103,"latitude":36.9663,"longitude":-86.3933,"cluster":5,"vehicle_id":95},{"weight":7639,"pallets":24,"zipcode":40210,"latitude":38.2306,"longitude":-85.7905,"cluster":3,"vehicle_id":3},{"weight":3443,"pallets":22,"zipcode":60510,"latitude":41.8482,"longitude":-88.3098,"cluster":2,"vehicle_id":104},{"weight":3053,"pallets":5,"zipcode":49265,"latitude":42.0295,"longitude":-84.1839,"cluster":3,"vehicle_id":30},{"weight":29341,"pallets":26,"zipcode":60076,"latitude":42.0362,"longitude":-87.7328,"cluster":5,"vehicle_id":82},{"weight":3589,"pallets":3,"zipcode":60540,"latitude":41.7662,"longitude":-88.141,"cluster":3,"vehicle_id":18},{"weight":20060,"pallets":22,"zipcode":60540,"latitude":41.7662,"longitude":-88.141,"cluster":0,"vehicle_id":27},{"weight":33752,"pallets":19,"zipcode":52040,"latitude":42.4833,"longitude":-91.1183,"cluster":0,"vehicle_id":28},{"weight":24455,"pallets":26,"zipcode":60449,"latitude":41.4191,"longitude":-87.7748,"cluster":3,"vehicle_id":41},{"weight":18627,"pallets":24,"zipcode":60449,"latitude":41.4191,"longitude":-87.7748,"cluster":1,"vehicle_id":68},{"weight":1198,"pallets":4,"zipcode":46052,"latitude":40.0449,"longitude":-86.4641,"cluster":0,"vehicle_id":80},{"weight":16996,"pallets":24,"zipcode":60123,"latitude":42.0376,"longitude":-88.3186,"cluster":5,"vehicle_id":70},{"weight":15000,"pallets":22,"zipcode":60123,"latitude":42.0376,"longitude":-88.3186,"cluster":3,"vehicle_id":3},{"weight":5014,"pallets":2,"zipcode":55121,"latitude":44.8471,"longitude":-93.1543,"cluster":3,"vehicle_id":8},{"weight":4639,"pallets":9,"zipcode":44011,"latitude":41.4467,"longitude":-82.0204,"cluster":5,"vehicle_id":23},{"weight":6761,"pallets":5,"zipcode":46168,"latitude":39.6893,"longitude":-86.3919,"cluster":0,"vehicle_id":78},{"weight":1496,"pallets":5,"zipcode":46168,"latitude":39.6893,"longitude":-86.3919,"cluster":4,"vehicle_id":85},{"weight":5462,"pallets":26,"zipcode":46383,"latitude":41.4547,"longitude":-87.0656,"cluster":1,"vehicle_id":28},{"weight":22898,"pallets":25,"zipcode":46383,"latitude":41.4547,"longitude":-87.0656,"cluster":2,"vehicle_id":78},{"weight":5748,"pallets":23,"zipcode":46383,"latitude":41.4547,"longitude":-87.0656,"cluster":4,"vehicle_id":19},{"weight":6748,"pallets":18,"zipcode":45365,"latitude":40.2874,"longitude":-84.1622,"cluster":2,"vehicle_id":61},{"weight":8724,"pallets":21,"zipcode":60101,"latitude":41.9335,"longitude":-88.0054,"cluster":0,"vehicle_id":56},{"weight":1030,"pallets":3,"zipcode":48188,"latitude":42.291,"longitude":-83.465,"cluster":0,"vehicle_id":42},{"weight":3666,"pallets":5,"zipcode":64507,"latitude":39.7551,"longitude":-94.8173,"cluster":5,"vehicle_id":93},{"weight":35084,"pallets":25,"zipcode":60106,"latitude":41.9501,"longitude":-87.945,"cluster":2,"vehicle_id":22}]